SONATE                  
1 44400U 19038Q   24142.90882624  .00029208  00000+0  91076-3 0  9991
2 44400  97.7113 135.8539 0016133 190.4562 169.6346 15.33069129270055
LUCKY-7                 
1 44406U 19038W   24142.91050902  .00051025  00000+0  11823-2 0  9997
2 44406  97.7018 139.5903 0014623 171.8214 188.3273 15.42156301270315
BEESAT 9                
1 44412U 19038AC  24142.98673973  .00712809  21001-3  21234-2 0  9999
2 44412  97.6688 148.9912 0010869 161.5887 198.5781 15.92340205270677
JAISAT-1                
1 44419U 19038F   24143.00026974  .00535778  10833-3  20519-2 0  9997
2 44419  97.6695 149.8761 0010634 155.1251 205.0535 15.87331295271044
DUCHIFAT-3              
1 44854U 19089C   24142.51713812  .00019988  00000+0  10317-2 0  9991
2 44854  36.9568 210.8463 0007657 225.3191 134.6933 15.15586852244225
M2 PATHFINDER           
1 45727U 20037E   24143.05191261  .00005877  00000+0  51572-3 0  9995
2 45727  97.7762 319.6309 0010599 203.3069 156.7674 14.96958710212037
NETSAT-4                
1 46504U 20068U   24142.84926114  .00015664  00000+0  84836-3 0  9996
2 46504  97.8042  99.2907 0012336  93.0553 267.2090 15.14646017200189
NETSAT-3                
1 46505U 20068V   24142.82407778  .00015200  00000+0  83602-3 0  9991
2 46505  97.8016  98.8048 0011509 100.0205 260.2325 15.14113087200175
NETSAT-1                
1 46506U 20068W   24143.11066399  .00011137  00000+0  64105-3 0  9997
2 46506  97.8036  98.6311 0010072 107.7172 252.5158 15.12573942200187
NETSAT-2                
1 46507U 20068X   24142.86476293  .00015483  00000+0  84123-3 0  9997
2 46507  97.8032  98.9477 0009685 111.7663 248.4599 15.14561066200132
WILDTRACKCUBE-SIMBA     
1 47941U 21022K   24143.18826051  .00017988  00000+0  81723-3 0  9993
2 47941  97.4644  40.1981 0014065 229.9310 130.0693 15.20735195174514
BEESAT-6                
1 47957U 21022AB  24143.18028863  .00218158  00000+0  25775-2 0  9991
2 47957  97.4394  50.1094 0009694 158.5311 201.6355 15.60535150174994
SMOG-1                  
1 47964U 21022AJ  24142.72110928  .00171007  00000+0  22008-2 0  9999
2 47964  97.4651  52.7333 0010805 153.9827 206.1974 15.58413247174108
BCCSAT-1                
1 48041U 21022AK  24143.18752124  .00085650  00000+0  17920-2 0  9992
2 48041  97.4657  49.5321 0008991 162.3446 197.8116 15.45111315173915
BEESAT-5                
1 48083U 21022AM  24141.72855085  .00435692  00000+0  31606-2 0  9998
2 48083  97.4104  49.8502 0010373 150.0178 210.1682 15.72085618174032
BEESAT-7                
1 48084U 21022AN  24141.70300736  .00149641  00000+0  22738-2 0  9997
2 48084  97.4618  48.6916 0009906 170.8844 189.2591 15.53986288173484
BEESAT-8                
1 48085U 21022AP  24142.70074574  .00035788  00000+0  11864-2 0  9991
2 48085  97.4777  44.5322 0011269 208.0591 152.0044 15.31125178173823
LEDSAT                  
1 49069U 21073D   24143.19225725  .00021052  00000+0  86720-3 0  9993
2 49069  97.4391 214.5120 0019312  19.5662 340.6312 15.23953226152491
SITRO-AIS 5 (KATYS)     
1 57176U 23091L   24143.15162453  .00011413  00000+0  74197-3 0  9992
2 57176  97.6148 195.5632 0017508 205.9147 154.1206 15.08038158 49576
SITRO-AIS 6 (CHIRKIN)   
1 57192U 23091AC  24143.20417193  .00010922  00000+0  70917-3 0  9990
2 57192  97.6147 195.6389 0017228 204.9092 155.1307 15.08101181 49581
SITRO-AIS 8 (ANOKHIN)   
1 57193U 23091AD  24143.17730934  .00011628  00000+0  74895-3 0  9991
2 57193  97.6134 195.6670 0017065 206.8994 153.1351 15.08383689 49584
SITRO-AIS 7 (FARTUSHNIY)
1 57194U 23091AE  24143.14208746  .00010703  00000+0  69591-3 0  9990
2 57194  97.6145 195.5612 0017105 205.7180 154.3199 15.08057670 49572
SITRO-AIS 10 (BURDAEV)  
1 57199U 23091AK  24143.17844779  .00012615  00000+0  77500-3 0  9993
2 57199  97.6152 196.4925 0012532 193.3236 166.7664 15.10151528 49636
SITRO-AIS 9 (SHCHUKIN)  
1 57201U 23091AM  24143.17651640  .00013084  00000+0  80392-3 0  9994
2 57201  97.6147 196.4735 0012474 193.3536 166.7365 15.10138740 49630
SITRO-AIS 12 (SMIRENNIY)
1 57204U 23091AQ  24143.14224999  .00012960  00000+0  79220-3 0  9997
2 57204  97.6164 196.5600 0012558 186.4972 173.6096 15.10327855 49639
SITRO-AIS 11 (SHEFFER)  
1 57208U 23091AU  24143.19559248  .00012350  00000+0  75353-3 0  9990
2 57208  97.6160 196.6330 0012358 186.5641 173.5428 15.10409315 49643
SITRO-AIS 29            
1 59052U 24039B   24143.08362680  .00031125  00000+0  11808-2 0  9997
2 59052  97.3908 105.3234 0015691 314.6134  45.3824 15.26683023 12613
SITRO-AIS 30            
1 59053U 24039C   24143.14839074  .00028973  00000+0  10999-2 0  9998
2 59053  97.3905 105.3865 0015850 315.2777  44.7183 15.26674076 12617
SITRO-AIS 31            
1 59054U 24039D   24143.20913529  .00027886  00000+0  10555-2 0  9994
2 59054  97.3905 105.4579 0015704 314.5204  45.4751 15.26782636 12640
SITRO-AIS 33            
1 59055U 24039E   24143.20339949  .00028642  00000+0  10800-2 0  9997
2 59055  97.3907 105.4685 0015459 315.8224  44.1779 15.26905820 12631
SITRO-AIS 35            
1 59056U 24039F   24143.20055407  .00025959  00000+0  97828-3 0  9996
2 59056  97.3907 105.4708 0015271 315.8854  44.1166 15.26948568 12635
SITRO-AIS 32            
1 59057U 24039G   24143.20442124  .00026921  00000+0  10180-2 0  9998
2 59057  97.3908 105.4663 0015298 315.9592  44.0428 15.26827795 12634
SITRO-AIS 34            
1 59058U 24039H   24143.20238856  .00028812  00000+0  10871-2 0  9992
2 59058  97.3908 105.4705 0015458 316.0327  43.9681 15.26883957 12639
SITRO-AIS 36            
1 59059U 24039J   24143.19727749  .00028839  00000+0  10845-2 0  9995
2 59059  97.3905 105.4755 0015033 316.2365  43.7681 15.27000163 12634
SITRO-AIS 49            
1 59060U 24039K   24143.19675685  .00028731  00000+0  10814-2 0  9995
2 59060  97.3906 105.4761 0015082 315.8186  44.1847 15.26971222 12635
SITRO-AIS 50            
1 59061U 24039L   24143.12595790  .00031332  00000+0  11731-2 0  9997
2 59061  97.3904 105.4180 0015056 316.3355  43.6692 15.27127498 12624
SITRO-AIS 51            
1 59062U 24039M   24143.19057395  .00028697  00000+0  10755-2 0  9994
2 59062  97.3906 105.4843 0014990 315.6940  44.3098 15.27113901 12634
SITRO-AIS 52            
1 59063U 24039N   24143.18621486  .00029842  00000+0  11153-2 0  9998
2 59063  97.3908 105.4901 0014849 315.7922  44.2130 15.27200470 12630
SITRO-AIS 25            
1 59066U 24039R   24143.15918574  .00009569  00000+0  91446-3 0  9993
2 59066  95.4031  79.7373 0175171  72.7981 289.2330 14.82417514 12256
SITRO-AIS 26            
1 59067U 24039S   24143.15847631  .00009794  00000+0  93653-3 0  9991
2 59067  95.4030  79.7374 0175020  72.8195 289.2102 14.82408021 12258
SITRO-AIS 27            
1 59068U 24039T   24143.15194411  .00010227  00000+0  97496-3 0  9995
2 59068  95.4033  79.7457 0174733  72.6933 289.3319 14.82547875 12254
SITRO-AIS 28            
1 59071U 24039U   24143.15005456  .00010527  00000+0  10030-2 0  9990
2 59071  95.4034  79.7482 0174591  72.6923 289.3314 14.82581934 12257
BEIJING 1               
1 28890U 05043A   24143.15780417  .00001076  00000+0  22228-3 0  9998
2 28890  98.1965 266.2097 0015999 125.3403 234.9297 14.62318839990098
HUANJING 1A (HJ-1A)     
1 33320U 08041A   24143.20013162  .00003013  00000+0  40476-3 0  9993
2 33320  97.6309 151.4988 0022060  96.0254 264.3473 14.79835677846519
HUANJING 1B (HJ-1B)     
1 33321U 08041B   24143.20964279  .00002306  00000+0  30622-3 0  9994
2 33321  97.6264 156.0486 0039552 139.2707 221.1475 14.80163940846535
YAOGAN-4                
1 33446U 08061A   24142.99061530  .00003281  00000+0  44248-3 0  9999
2 33446  97.8792  75.3694 0015551  16.7202 343.4519 14.79733499833686
DEIMOS-1                
1 35681U 09041A   24143.18377360  .00001506  00000+0  24019-3 0  9996
2 35681  97.6799 326.5027 0002827 100.5868 259.5660 14.73281243795485
UK-DMC 2                
1 35683U 09041C   24143.19129065  .00002080  00000+0  32931-3 0  9996
2 35683  97.7777 291.9138 0001454 102.4842 257.6529 14.73252653795183
DMC3-FM1                
1 40715U 15032A   24143.19924984  .00001644  00000+0  20548-3 0  9994
2 40715  97.7537  22.8720 0006449  31.5717 328.5884 14.83628194477726
DMC3-FM2                
1 40716U 15032B   24143.22222867  .00001798  00000+0  22407-3 0  9996
2 40716  97.7590  23.9462 0008444  32.6220 327.5514 14.83633996477724
DMC3-FM3                
1 40717U 15032C   24143.17843377  .00001488  00000+0  18677-3 0  9996
2 40717  97.7638  25.1656 0009828  28.2493 331.9252 14.83575661477729
NOAA 15                 
1 25338U 98030A   24143.14573166  .00000543  00000+0  24261-3 0  9997
2 25338  98.5699 170.8146 0011106  46.4716 313.7385 14.26581666353728
DMSP 5D-3 F16 (USA 172) 
1 28054U 03048A   24143.18385601  .00000338  00000+0  20188-3 0  9995
2 28054  99.0209 149.4088 0008240 121.7068 314.0056 14.14026205 62601
NOAA 18                 
1 28654U 05018A   24143.15379460  .00000470  00000+0  27445-3 0  9993
2 28654  98.8743 220.3343 0015165 134.7466 225.4944 14.13211602979581
METEOSAT-9 (MSG-2)      
1 28912U 05049B   24142.87479712  .00000143  00000+0  00000+0 0  9994
2 28912   7.6276  61.0849 0000945 353.5373 186.1593  1.00278944 67468
EWS-G1 (GOES 13)        
1 29155U 06018A   24142.88661951 -.00000204  00000+0  00000+0 0  9999
2 29155   2.5579  85.5695 0082933 254.7918 202.7636  0.99109933 35772
DMSP 5D-3 F17 (USA 191) 
1 29522U 06050A   24143.22606112  .00000374  00000+0  21748-3 0  9993
2 29522  98.7443 154.3383 0011145  57.6220 302.6030 14.14475549905527
FENGYUN 3A              
1 32958U 08026A   24142.87468559  .00000388  00000+0  20577-3 0  9990
2 32958  98.6028  90.7567 0009310 142.4045 217.7784 14.19089983828229
